[{"OBJECT_NAME":"STARLINK-32822","OBJECT_ID":"2025-022Q","EPOCH":"2026-03-09T10:55:54.958080","MEAN_MOTION":15.30183838,"ECCENTRICITY":0.00012898,"INCLINATION":53.1576,"RA_OF_ASC_NODE":130.749,"ARG_OF_PERICENTER":74.9988,"MEAN_ANOMALY":285.1156,"EPHEMERIS_TYPE":0,"CLASSIFICATION_TYPE":"U","NORAD_CAT_ID":62868,"ELEMENT_SET_NO":999,"REV_AT_EPOCH":6186,"BSTAR":0.00051600389,"MEAN_MOTION_DOT":0.00014947,"MEAN_MOTION_DDOT":0},{"OBJECT_NAME":"CZ-2C DEB","OBJECT_ID":"2018-056F","EPOCH":"2026-03-09T10:57:26.102304","MEAN_MOTION":15.27739248,"ECCENTRICITY":0.00119172,"INCLINATION":98.1188,"RA_OF_ASC_NODE":250.032,"ARG_OF_PERICENTER":4.6998,"MEAN_ANOMALY":355.4349,"EPHEMERIS_TYPE":0,"CLASSIFICATION_TYPE":"U","NORAD_CAT_ID":43534,"ELEMENT_SET_NO":999,"REV_AT_EPOCH":41855,"BSTAR":0.00085537155,"MEAN_MOTION_DOT":0.00023193,"MEAN_MOTION_DDOT":0}]
